start=new Date('2022-10-24T00:00:00.000Z').valueOf();
sats=[{"TIME_SYSTEM":"UTC","ECCENTRICITY":"0.00014020","GP_ID":"215992924","ARG_OF_PERICENTER":"68.3540","RA_OF_ASC_NODE":"17.1761","NORAD_CAT_ID":"46699","CLASSIFICATION_TYPE":"U","TLE_LINE2":"2 46699  53.0562  17.1761 0001402  68.3540 291.7599 15.06413801111276","OBJECT_TYPE":"PAYLOAD","APOAPSIS":"548.142","COUNTRY_CODE":"US","FILE":"3630604","RCS_SIZE":"LARGE","REV_AT_EPOCH":"11127","OBJECT_NAME":"STARLINK-1799","OBJECT_ID":"2020-073AF","MEAN_MOTION":"15.06413801","EPHEMERIS_TYPE":"0","ELEMENT_SET_NO":"999","PERIOD":"95.591","REF_FRAME":"TEME","TLE_LINE1":"1 46699U 20073AF  22296.60020397  .00002474  00000-0  18483-3 0  9998","MEAN_MOTION_DOT":"0.00002474","MEAN_ANOMALY":"291.7599","DECAY_DATE":null,"INCLINATION":"53.0562","EPOCH":"2022-10-23T14:24:17.623008","MEAN_MOTION_DDOT":"0.0000000000000","BSTAR":"0.00018483000000","LAUNCH_DATE":"2020-10-18","PERIAPSIS":"546.200","SITE":"AFETR","SEMIMAJOR_AXIS":"6925.306","MEAN_ELEMENT_THEORY":"SGP4","CENTER_NAME":"EARTH"},{"ARG_OF_PERICENTER":"65.1218","RA_OF_ASC_NODE":"31.8708","NORAD_CAT_ID":"46700","TLE_LINE2":"2 46700  53.0564  31.8708 0001440  65.1218 294.9921 15.06401934111070","CLASSIFICATION_TYPE":"U","OBJECT_TYPE":"PAYLOAD","APOAPSIS":"548.205","TIME_SYSTEM":"UTC","ECCENTRICITY":"0.00014400","GP_ID":"215992675","OBJECT_NAME":"STARLINK-1800","OBJECT_ID":"2020-073AG","MEAN_MOTION":"15.06401934","EPHEMERIS_TYPE":"0","COUNTRY_CODE":"US","FILE":"3630604","RCS_SIZE":"LARGE","REV_AT_EPOCH":"11107","INCLINATION":"53.0564","EPOCH":"2022-10-23T16:05:48.860160","MEAN_MOTION_DDOT":"0.0000000000000","ELEMENT_SET_NO":"999","PERIOD":"95.592","REF_FRAME":"TEME","TLE_LINE1":"1 46700U 20073AG  22296.67070440  .00000013  00000-0  19795-4 0  9997","MEAN_MOTION_DOT":"0.00000013","DECAY_DATE":null,"MEAN_ANOMALY":"294.9921","MEAN_ELEMENT_THEORY":"SGP4","CENTER_NAME":"EARTH","BSTAR":"0.00001979500000","LAUNCH_DATE":"2020-10-18","PERIAPSIS":"546.210","SEMIMAJOR_AXIS":"6925.343","SITE":"AFETR"},{"EPOCH":"2022-10-23T15:17:22.260480","INCLINATION":"53.0559","MEAN_MOTION_DDOT":"0.0000000000000","PERIOD":"95.591","ELEMENT_SET_NO":"999","MEAN_ANOMALY":"304.9192","DECAY_DATE":null,"MEAN_MOTION_DOT":"0.00001454","TLE_LINE1":"1 46701U 20073AH  22296.63706320  .00001454  00000-0  11645-3 0  9992","REF_FRAME":"TEME","CENTER_NAME":"EARTH","MEAN_ELEMENT_THEORY":"SGP4","BSTAR":"0.00011645000000","SITE":"AFETR","SEMIMAJOR_AXIS":"6925.309","PERIAPSIS":"546.058","LAUNCH_DATE":"2020-10-18","NORAD_CAT_ID":"46701","ARG_OF_PERICENTER":"55.1949","RA_OF_ASC_NODE":"17.0172","APOAPSIS":"548.290","OBJECT_TYPE":"PAYLOAD","TLE_LINE2":"2 46701  53.0559  17.0172 0001611  55.1949 304.9192 15.06412880111283","CLASSIFICATION_TYPE":"U","TIME_SYSTEM":"UTC","ECCENTRICITY":"0.00016110","GP_ID":"215991425","OBJECT_NAME":"STARLINK-1801","EPHEMERIS_TYPE":"0","MEAN_MOTION":"15.06412880","OBJECT_ID":"2020-073AH","COUNTRY_CODE":"US","RCS_SIZE":"LARGE","REV_AT_EPOCH":"11128","FILE":"3630604"},{"RA_OF_ASC_NODE":"357.2504","ARG_OF_PERICENTER":"46.0295","NORAD_CAT_ID":"46702","APOAPSIS":"548.486","TLE_LINE2":"2 46702  53.0542 357.2504 0001885  46.0295 314.0849 15.06410818111550","OBJECT_TYPE":"PAYLOAD","CLASSIFICATION_TYPE":"U","TIME_SYSTEM":"UTC","ECCENTRICITY":"0.00018850","GP_ID":"215991675","OBJECT_NAME":"STARLINK-1802","EPHEMERIS_TYPE":"0","OBJECT_ID":"2020-073AJ","MEAN_MOTION":"15.06410818","COUNTRY_CODE":"US","FILE":"3630604","RCS_SIZE":"LARGE","REV_AT_EPOCH":"11155","EPOCH":"2022-10-23T14:00:25.263936","INCLINATION":"53.0542","MEAN_MOTION_DDOT":"0.0000000000000","ELEMENT_SET_NO":"999","PERIOD":"95.591","MEAN_MOTION_DOT":"0.00002179","TLE_LINE1":"1 46702U 20073AJ  22296.58362574  .00002179  00000-0  16508-3 0  9994","MEAN_ANOMALY":"314.0849","DECAY_DATE":null,"REF_FRAME":"TEME","CENTER_NAME":"EARTH","MEAN_ELEMENT_THEORY":"SGP4","BSTAR":"0.00016508000000","SEMIMAJOR_AXIS":"6925.315","SITE":"AFETR","LAUNCH_DATE":"2020-10-18","PERIAPSIS":"545.875"},{"CENTER_NAME":"EARTH","MEAN_ELEMENT_THEORY":"SGP4","BSTAR":"0.00011042000000","SEMIMAJOR_AXIS":"6925.353","SITE":"AFETR","PERIAPSIS":"546.078","LAUNCH_DATE":"2020-10-18","EPOCH":"2022-10-23T13:10:00.265152","INCLINATION":"53.0565","MEAN_MOTION_DDOT":"0.0000000000000","PERIOD":"95.592","ELEMENT_SET_NO":"999","MEAN_ANOMALY":"305.7094","DECAY_DATE":null,"TLE_LINE1":"1 46703U 20073AK  22296.54861418  .00001363  00000-0  11042-3 0  9994","MEAN_MOTION_DOT":"0.00001363","REF_FRAME":"TEME","OBJECT_NAME":"STARLINK-1803","EPHEMERIS_TYPE":"0","MEAN_MOTION":"15.06398628","OBJECT_ID":"2020-073AK","COUNTRY_CODE":"US","RCS_SIZE":"LARGE","REV_AT_EPOCH":"11126","FILE":"3630604","NORAD_CAT_ID":"46703","RA_OF_ASC_NODE":"17.3969","ARG_OF_PERICENTER":"54.4049","APOAPSIS":"548.358","OBJECT_TYPE":"PAYLOAD","TLE_LINE2":"2 46703  53.0565  17.3969 0001646  54.4049 305.7094 15.06398628111261","CLASSIFICATION_TYPE":"U","ECCENTRICITY":"0.00016460","TIME_SYSTEM":"UTC","GP_ID":"215992424"},{"TIME_SYSTEM":"UTC","ECCENTRICITY":"0.00019740","GP_ID":"215993176","NORAD_CAT_ID":"46704","RA_OF_ASC_NODE":"356.9085","ARG_OF_PERICENTER":"42.3289","TLE_LINE2":"2 46704  53.0568 356.9085 0001974  42.3289 317.7852 15.06408624111568","CLASSIFICATION_TYPE":"U","OBJECT_TYPE":"PAYLOAD","APOAPSIS":"548.554","COUNTRY_CODE":"US","RCS_SIZE":"LARGE","REV_AT_EPOCH":"11156","FILE":"3630604","OBJECT_NAME":"STARLINK-1804","MEAN_MOTION":"15.06408624","OBJECT_ID":"2020-073AL","EPHEMERIS_TYPE":"0","PERIOD":"95.592","ELEMENT_SET_NO":"999","REF_FRAME":"TEME","MEAN_ANOMALY":"317.7852","DECAY_DATE":null,"MEAN_MOTION_DOT":"0.00001456","TLE_LINE1":"1 46704U 20073AL  22296.66102613  .00001456  00000-0  11662-3 0  9994","INCLINATION":"53.0568","EPOCH":"2022-10-23T15:51:52.657632","MEAN_MOTION_DDOT":"0.0000000000000","BSTAR":"0.00011662000000","PERIAPSIS":"545.820","LAUNCH_DATE":"2020-10-18","SITE":"AFETR","SEMIMAJOR_AXIS":"6925.322","MEAN_ELEMENT_THEORY":"SGP4","CENTER_NAME":"EARTH"},{"OBJECT_NAME":"STARLINK-1805","EPHEMERIS_TYPE":"0","MEAN_MOTION":"15.06412880","OBJECT_ID":"2020-073AM","COUNTRY_CODE":"US","REV_AT_EPOCH":"11107","RCS_SIZE":"LARGE","FILE":"3630604","NORAD_CAT_ID":"46705","RA_OF_ASC_NODE":"31.8344","ARG_OF_PERICENTER":"59.9291","APOAPSIS":"548.115","CLASSIFICATION_TYPE":"U","TLE_LINE2":"2 46705  53.0569  31.8344 0001358  59.9291 300.1833 15.06412880111070","OBJECT_TYPE":"PAYLOAD","ECCENTRICITY":"0.00013580","TIME_SYSTEM":"UTC","GP_ID":"215991926","CENTER_NAME":"EARTH","MEAN_ELEMENT_THEORY":"SGP4","BSTAR":"0.00013859000000","SEMIMAJOR_AXIS":"6925.309","SITE":"AFETR","PERIAPSIS":"546.234","LAUNCH_DATE":"2020-10-18","EPOCH":"2022-10-23T16:11:06.421632","INCLINATION":"53.0569","MEAN_MOTION_DDOT":"0.0000000000000","PERIOD":"95.591","ELEMENT_SET_NO":"999","DECAY_DATE":null,"MEAN_ANOMALY":"300.1833","TLE_LINE1":"1 46705U 20073AM  22296.67437988  .00001784  00000-0  13859-3 0  9996","MEAN_MOTION_DOT":"0.00001784","REF_FRAME":"TEME"},{"MEAN_MOTION":"15.06408248","OBJECT_ID":"2020-073AN","EPHEMERIS_TYPE":"0","OBJECT_NAME":"STARLINK-1807","RCS_SIZE":"LARGE","REV_AT_EPOCH":"11128","FILE":"3630604","COUNTRY_CODE":"US","TLE_LINE2":"2 46706  53.0548  16.9709 0001814  46.8974 313.2167 15.06408248111288","CLASSIFICATION_TYPE":"U","OBJECT_TYPE":"PAYLOAD","APOAPSIS":"548.445","NORAD_CAT_ID":"46706","ARG_OF_PERICENTER":"46.8974","RA_OF_ASC_NODE":"16.9709","GP_ID":"215992175","TIME_SYSTEM":"UTC","ECCENTRICITY":"0.00018140","MEAN_ELEMENT_THEORY":"SGP4","CENTER_NAME":"EARTH","PERIAPSIS":"545.932","LAUNCH_DATE":"2020-10-18","SEMIMAJOR_AXIS":"6925.323","SITE":"AFETR","BSTAR":"0.00003926700000","MEAN_MOTION_DDOT":"0.0000000000000","INCLINATION":"53.0548","EPOCH":"2022-10-23T15:33:18.196992","REF_FRAME":"TEME","MEAN_ANOMALY":"313.2167","DECAY_DATE":null,"TLE_LINE1":"1 46706U 20073AN  22296.64812728  .00000303  00000-0  39267-4 0  9991","MEAN_MOTION_DOT":"0.00000303","PERIOD":"95.592","ELEMENT_SET_NO":"999"},{"REF_FRAME":"TEME","MEAN_MOTION_DOT":"0.00001686","TLE_LINE1":"1 46707U 20073AP  22296.57256089  .00001686  00000-0  13206-3 0  9995","DECAY_DATE":null,"MEAN_ANOMALY":"324.3041","ELEMENT_SET_NO":"999","PERIOD":"95.592","MEAN_MOTION_DDOT":"0.0000000000000","INCLINATION":"53.0576","EPOCH":"2022-10-23T13:44:29.260896","LAUNCH_DATE":"2020-10-18","PERIAPSIS":"545.803","SITE":"AFETR","SEMIMAJOR_AXIS":"6925.332","BSTAR":"0.00013206000000","MEAN_ELEMENT_THEORY":"SGP4","CENTER_NAME":"EARTH","GP_ID":"215992925","ECCENTRICITY":"0.00020120","TIME_SYSTEM":"UTC","TLE_LINE2":"2 46707  53.0576 357.3088 0002012  35.8083 324.3041 15.06405520111556","OBJECT_TYPE":"PAYLOAD","CLASSIFICATION_TYPE":"U","APOAPSIS":"548.590","ARG_OF_PERICENTER":"35.8083","RA_OF_ASC_NODE":"357.3088","NORAD_CAT_ID":"46707","FILE":"3630604","RCS_SIZE":"LARGE","REV_AT_EPOCH":"11155","COUNTRY_CODE":"US","OBJECT_ID":"2020-073AP","MEAN_MOTION":"15.06405520","EPHEMERIS_TYPE":"0","OBJECT_NAME":"STARLINK-1808"},{"RA_OF_ASC_NODE":"31.7918","ARG_OF_PERICENTER":"68.3655","NORAD_CAT_ID":"46709","APOAPSIS":"548.123","CLASSIFICATION_TYPE":"U","TLE_LINE2":"2 46709  53.0559  31.7918 0001452  68.3655 291.7489 15.06431272111070","OBJECT_TYPE":"PAYLOAD","TIME_SYSTEM":"UTC","ECCENTRICITY":"0.00014520","GP_ID":"215992676","OBJECT_NAME":"STARLINK-1810","EPHEMERIS_TYPE":"0","OBJECT_ID":"2020-073AR","MEAN_MOTION":"15.06431272","COUNTRY_CODE":"US","FILE":"3630604","REV_AT_EPOCH":"11107","RCS_SIZE":"LARGE","EPOCH":"2022-10-23T17:09:32.853312","INCLINATION":"53.0559","MEAN_MOTION_DDOT":"0.0000000000000","ELEMENT_SET_NO":"999","PERIOD":"95.590","MEAN_MOTION_DOT":"0.00018394","TLE_LINE1":"1 46709U 20073AR  22296.71496358  .00018394  00000-0  12495-2 0  9990","MEAN_ANOMALY":"291.7489","DECAY_DATE":null,"REF_FRAME":"TEME","CENTER_NAME":"EARTH","MEAN_ELEMENT_THEORY":"SGP4","BSTAR":"0.00124950000000","SITE":"AFETR","SEMIMAJOR_AXIS":"6925.253","LAUNCH_DATE":"2020-10-18","PERIAPSIS":"546.112"}];
